ONEWEB-0558             
1 56059U 23043P   25151.47858013  .00000076  00000+0  15245-3 0  9999
2 56059  87.9247 320.1137 0002010 107.6009 252.5345 13.21825766107811
ONEWEB-0559             
1 56060U 23043Q   25151.46752972  .00000065  00000+0  12669-3 0  9992
2 56060  87.9245 320.1084 0001619 105.1115 255.0198 13.21826866107824
ONEWEB-0566             
1 56061U 23043R   25151.53692827 -.00000042  00000+0 -13299-3 0  9990
2 56061  87.9244 320.0936 0001854 111.9675 248.1656 13.21825270107815
ONEWEB-0568             
1 56062U 23043S   25151.43020977  .00000058  00000+0  11905-3 0  9998
2 56062  87.9035 304.8517 0002010  89.7063 270.4298 13.16595810108748
ONEWEB-0574             
1 56063U 23043T   25151.45491749 -.00000009  00000+0 -53998-4 0  9997
2 56063  87.9243 320.0984 0001673  88.4146 271.7180 13.21827058107842
ONEWEB-0575             
1 56064U 23043U   25151.42387581  .00000082  00000+0  18166-3 0  9999
2 56064  87.9027 304.8646 0001651  81.5099 278.6219 13.16595542108737
ONEWEB-0576             
1 56065U 23043V   25151.48086296  .00000088  00000+0  19689-3 0  9992
2 56065  87.9026 304.8438 0001910  89.9512 270.1838 13.16595397108738
ONEWEB-0577             
1 56066U 23043W   25151.41120651  .00000109  00000+0  25102-3 0  9991
2 56066  87.9024 304.8574 0001521  74.9801 285.1498 13.16595662108756
